[{"OBJECT_NAME":"STARLINK-31696","OBJECT_ID":"2024-065Q","EPOCH":"2026-03-09T21:40:27.816672","MEAN_MOTION":15.30191505,"ECCENTRICITY":0.00011403,"INCLINATION":53.1601,"RA_OF_ASC_NODE":280.5719,"ARG_OF_PERICENTER":101.0378,"MEAN_ANOMALY":259.0751,"EPHEMERIS_TYPE":0,"CLASSIFICATION_TYPE":"U","NORAD_CAT_ID":59435,"ELEMENT_SET_NO":999,"REV_AT_EPOCH":10896,"BSTAR":3.151846e-6,"MEAN_MOTION_DOT":-2.66e-6,"MEAN_MOTION_DDOT":0},{"OBJECT_NAME":"NOAA 17 DEB","OBJECT_ID":"2002-032AF","EPOCH":"2026-03-09T00:24:06.552000","MEAN_MOTION":15.25501717,"ECCENTRICITY":0.00030847,"INCLINATION":98.6472,"RA_OF_ASC_NODE":92.5947,"ARG_OF_PERICENTER":165.9893,"MEAN_ANOMALY":194.1428,"EPHEMERIS_TYPE":0,"CLASSIFICATION_TYPE":"U","NORAD_CAT_ID":48614,"ELEMENT_SET_NO":999,"REV_AT_EPOCH":26420,"BSTAR":0.01090047,"MEAN_MOTION_DOT":0.00286783,"MEAN_MOTION_DDOT":0}]
